FLOCK 4G-15             
1 62678U 25009BX  26068.71779869  .00012647  00000+0  47575-3 0  9991
2 62678  97.4054 151.1927 0003699 316.8208  43.2740 15.27266411121358
STARLINK-35755          
1 67163U 25303A   26068.09006811  .00039901  00000+0  14510-2 0  9997
2 67163  42.9997 314.0948 0001700 332.6659  27.4103 15.27594287 12646
